     3.03           N                   C                   RINEX VERSION / TYPE
sbf2rin-13.4.5      RIGTC, GO PECNY     20210729 201812 UTC PGM / RUN BY / DATE 
BEIDOU NAVIGATION DATA FROM STATION GOP6 (RIGTC, GO PECNY)  COMMENT             
                                                            END OF HEADER       
C05 2021 07 29 19 00 00-2.426386345178E-05 1.619682166165E-11 0.000000000000E+00
     1.000000000000E+00 4.541406250000E+02 9.511110461642E-10-2.048082235920E+00
     1.486344262958E-05 6.745990831405E-04-4.400499165058E-07 6.493398475647E+03
     4.140000000000E+05 1.001171767712E-07 1.987318779255E+00-9.313225746155E-08
     1.153096051193E-01 1.000000000000E+01-1.408566474047E-01-2.178662178596E-11
     2.014369620866E-10 0.000000000000E+00 8.120000000000E+02
     2.000000000000E+00 0.000000000000E+00-5.000000000000E-10-9.600000000000E-09
     4.140276000000E+05 0.000000000000E+00
C06 2021 07 29 17 00 00 6.875587860122E-04 4.976374867738E-11 0.000000000000E+00
     1.000000000000E+00-1.573281250000E+02 9.414677873409E-10-1.680852540427E+00
    -5.585141479969E-06 1.131722272839E-02 2.558203414083E-05 6.493982833862E+03
     4.068000000000E+05 1.261942088604E-07-2.159352857348E+00-2.817250788212E-07
     9.454779522775E-01-5.453906250000E+02-2.181505879951E+00-1.820790128932E-09
    -2.253665302777E-10 0.000000000000E+00 8.120000000000E+02
     2.000000000000E+00 0.000000000000E+00 8.200000000000E-09-1.900000000000E-09
     4.068180000000E+05 0.000000000000E+00
C07 2021 07 29 19 00 00 6.816815584898E-05-4.136069264860E-11 0.000000000000E+00
     1.000000000000E+00-3.881250000000E+01 1.935794919343E-09-2.817986707086E+00
    -1.274049282074E-06 9.104357450269E-03 9.937211871147E-07 6.492819972992E+03
     4.140000000000E+05-2.165324985981E-07-1.639730030252E-01 1.252628862858E-07
     8.867385042180E-01 1.908750000000E+02-2.498166315660E+00-2.744042871829E-09
    -3.518003681831E-10 0.000000000000E+00 8.120000000000E+02
     2.000000000000E+00 0.000000000000E+00 1.450000000000E-08 6.000000000000E-10
     4.140180000000E+05 0.000000000000E+00
C09 2021 07 29 19 00 00 1.329998485744E-05-2.908162599624E-11 0.000000000000E+00
     1.000000000000E+00-1.185468750000E+02 9.625400936584E-10-1.426124800119E+00
    -4.257541149855E-06 8.288650307804E-03 2.617714926600E-05 6.493773050308E+03
     4.140000000000E+05 6.053596735001E-08-2.116610481391E+00-2.360902726650E-07
     9.504001420379E-01-5.607656250000E+02-2.337923951231E+00-1.790431721525E-09
    -2.014369620866E-10 0.000000000000E+00 8.120000000000E+02
     2.000000000000E+00 0.000000000000E+00 6.600000000000E-09 3.400000000000E-09
     4.140180000000E+05 0.000000000000E+00
C10 2021 07 29 19 00 00-1.371942926198E-05 3.701039474890E-12 0.000000000000E+00
     1.000000000000E+00-7.187500000000E-01 1.886507152024E-09-3.136794248643E+00
     3.818422555923E-08 7.717223721556E-03 1.186039298773E-06 6.493166294098E+03
     4.140000000000E+05-1.313164830208E-07-1.705171563926E-01 1.611188054085E-07
     8.885543995602E-01 1.814375000000E+02-2.532249467383E+00-2.762972231741E-09
    -3.192990143713E-10 0.000000000000E+00 8.120000000000E+02
     2.000000000000E+00 0.000000000000E+00 6.100000000000E-09 2.600000000000E-09
     4.140180000000E+05 0.000000000000E+00
C11 2021 07 29 17 00 00 4.862901987508E-04 2.199662674229E-11-3.117081245896E-19
     1.500000000000E+01 1.000000000000E+01 3.203704875739E-09-9.919235444314E-01
     5.774199962616E-07 1.902550808154E-03 9.084120392799E-06 5.282610877991E+03
     4.068000000000E+05-2.468004822731E-08 1.069783704831E+00 3.585591912270E-08
     9.904088844026E-01 1.952500000000E+02-2.077499252434E+00-6.520985910952E-09
     8.321775206769E-11 0.000000000000E+00 8.120000000000E+02
     2.000000000000E+00 0.000000000000E+00 3.600000000000E-09 1.200000000000E-09
     4.068180000000E+05 1.400000000000E+01
C14 2021 07 29 19 00 00 7.639311952516E-04-3.241140689170E-11 0.000000000000E+00
     1.400000000000E+01-6.043750000000E+01 4.098027842166E-09 2.624093145292E+00
    -2.943444997072E-06 1.336027053185E-03 5.760230123997E-06 5.282617780685E+03
     4.140000000000E+05-1.583248376846E-08 3.135600374364E+00 7.823109626770E-08
     9.642902770978E-01 2.459062500000E+02-4.986662125465E-01-6.991005489154E-09
    -1.253623647028E-10 0.000000000000E+00 8.120000000000E+02
     2.000000000000E+00 0.000000000000E+00 6.700000000000E-09 1.400000000000E-09
     4.140180000000E+05 0.000000000000E+00
C16 2021 07 29 17 00 00-8.901006076485E-04 2.140421173635E-11 0.000000000000E+00
     1.000000000000E+00-1.942812500000E+02 8.196769999800E-10-1.492884305949E+00
    -6.540678441525E-06 3.780935192481E-03 2.533197402954E-05 6.493801275253E+03
     4.068000000000E+05 6.798654794693E-08-2.170266136982E+00-2.644956111908E-07
     9.608520041427E-01-5.278593750000E+02-2.418423613759E+00-1.802932242222E-09
    -2.571535686212E-10 0.000000000000E+00 8.120000000000E+02
     2.000000000000E+00 0.000000000000E+00-2.900000000000E-09 4.100000000000E-09
     4.068180000000E+05 0.000000000000E+00
C21 2021 07 29 18 00 00-9.374977089465E-04-1.877609179246E-12 0.000000000000E+00
     1.000000000000E+00-6.037500000000E+01 4.019453140643E-09-2.769663990617E+00
    -3.132503479719E-06 6.673885509372E-04 6.062444299459E-06 5.282623634338E+03
     4.104000000000E+05-6.984919309616E-08 3.137146447633E+00 8.987262845039E-08
     9.662565867510E-01 2.400468750000E+02-7.263538578394E-01-6.991005489154E-09
    -2.385813664430E-10 0.000000000000E+00 8.120000000000E+02
     2.000000000000E+00 0.000000000000E+00 1.410000000000E-08 1.410000000000E-08
     4.104180000000E+05 1.000000000000E+00
C24 2021 07 29 19 00 00-9.638327173889E-04-1.974864716203E-11 0.000000000000E+00
     1.000000000000E+00 5.767187500000E+01 4.131243511446E-09 5.829444783660E-01
     2.886168658733E-06 3.833962837234E-04 6.955116987228E-06 5.282615259171E+03
     4.140000000000E+05 9.313225746155E-09-1.043004755323E+00 2.793967723846E-09
     9.488562997192E-01 2.136875000000E+02-1.462665009069E-01-7.029935682182E-09
     1.603638226540E-10 0.000000000000E+00 8.120000000000E+02
     2.000000000000E+00 0.000000000000E+00 7.000000000000E-09 7.000000000000E-09
     4.140180000000E+05 1.000000000000E+00
C25 2021 07 29 19 00 00-8.783631492406E-04 5.941025449374E-12 0.000000000000E+00
     1.000000000000E+00 5.959375000000E+01 4.119100148483E-09-4.172821048575E-01
     2.883840352297E-06 3.475939156488E-04 6.691552698612E-06 5.282623434067E+03
     4.140000000000E+05 4.190951585770E-09-1.068252367536E+00-8.847564458847E-09
     9.501341235514E-01 2.205625000000E+02 2.688495255190E-02-7.029578524447E-09
     9.428964182777E-11 0.000000000000E+00 8.120000000000E+02
     2.000000000000E+00 0.000000000000E+00 9.000000000000E-10 9.000000000000E-10
     4.140180000000E+05 1.000000000000E+00
C26 2021 07 29 19 00 00 8.718406315893E-04-5.176303830012E-12 0.000000000000E+00
     1.000000000000E+00 6.495312500000E+01 4.014810090098E-09 1.017407366712E+00
     3.321096301079E-06 6.365783046931E-04 7.302965968847E-06 5.282622352600E+03
     4.140000000000E+05-4.330649971962E-08-1.067684013622E+00 2.793967723846E-09
     9.501881695969E-01 2.078281250000E+02 1.550858649316E-01-6.967075920963E-09
     1.835790753768E-10 0.000000000000E+00 8.120000000000E+02
     2.000000000000E+00 0.000000000000E+00-4.900000000000E-09-4.900000000000E-09
     4.140180000000E+05 1.000000000000E+00
C27 2021 07 29 19 00 00 5.723467329517E-04 6.211919867383E-12 0.000000000000E+00
     1.000000000000E+00 1.500000000000E+01 3.584077862658E-09 9.798296109105E-01
     6.826594471931E-07 7.002908969298E-04 9.316485375166E-06 5.282620458603E+03
     4.140000000000E+05-1.396983861923E-09 1.060457033001E+00 2.142041921616E-08
     9.664349076874E-01 1.731562500000E+02 1.238093794753E+00-6.723851503975E-09
     7.750322832055E-11 0.000000000000E+00 8.120000000000E+02
     2.000000000000E+00 0.000000000000E+00-4.500000000000E-09-4.500000000000E-09
     4.140180000000E+05 1.000000000000E+00
C28 2021 07 29 19 00 00-4.479172639549E-05 4.571454326197E-12 0.000000000000E+00
     1.000000000000E+00 5.187500000000E+00 3.546576300567E-09 6.530775274147E-02
     3.213062882423E-07 2.035743091255E-04 8.796341717243E-06 5.282625959396E+03
     4.140000000000E+05-7.450580596924E-09 1.060277559285E+00 2.142041921616E-08
     9.663299930544E-01 1.870156250000E+02 2.941088428321E+00-6.721351399836E-09
     8.571785620706E-11 0.000000000000E+00 8.120000000000E+02
     2.000000000000E+00 0.000000000000E+00-4.400000000000E-09-4.400000000000E-09
     4.140180000000E+05 1.000000000000E+00
C33 2021 07 29 19 00 00-9.491338860244E-04-5.179856543691E-12 0.000000000000E+00
     1.000000000000E+00-6.226562500000E+01 4.101242261774E-09 1.981011328959E+00
    -2.945773303509E-06 4.196935333312E-04 5.776528269053E-06 5.282621566772E+03
     4.140000000000E+05 6.845220923424E-08 3.129325065841E+00 7.916241884232E-08
     9.656847467030E-01 2.458906250000E+02-2.714964563457E-01-7.037793152334E-09
    -1.385772008681E-10 0.000000000000E+00 8.120000000000E+02
     2.000000000000E+00 0.000000000000E+00-4.250000000000E-08-4.250000000000E-08
     4.140180000000E+05 1.000000000000E+00
C34 2021 07 29 17 00 00-6.170565029606E-04 8.591349853759E-12 0.000000000000E+00
     1.000000000000E+00 4.625000000000E+00 3.712654646968E-09 2.768703451772E+00
     2.123415470123E-07 5.252505652606E-04 9.172596037388E-06 5.282625505447E+03
     4.068000000000E+05-2.607703208923E-08 1.025293678660E+00-8.847564458847E-09
     9.632991691170E-01 1.808125000000E+02 8.216488637846E-01-6.750995491774E-09
     5.750239520557E-11 0.000000000000E+00 8.120000000000E+02
     2.000000000000E+00 0.000000000000E+00-6.300000000000E-09-6.300000000000E-09
     4.068180000000E+05 1.000000000000E+00
